GLOBALSTAR M024         
1 25883U 99043A   24174.33474303 -.00000081  00000+0 -57661-3 0  9994
2 25883  52.0002 112.5677 0001217 254.3438 279.6572 11.10156156 74899
GLOBALSTAR M027         
1 25884U 99043B   24174.43718759 -.00000049  00000+0  53580-3 0  9991
2 25884  52.0171 180.1280 0021059 130.9443 229.3176 11.04368798101498
GLOBALSTAR M054         
1 25885U 99043C   24174.54457067 -.00000050  00000+0  54244-3 0  9996
2 25885  52.0164   7.5422 0004180 289.9384  82.8725 11.39203791 78063
GLOBALSTAR M053         
1 25886U 99043D   24174.54607073 -.00000037  00000+0  93363-3 0  9991
2 25886  51.9998 294.6822 0003930 183.8812 259.3127 11.27656072 78877
GLOBALSTAR M058         
1 25907U 99049A   24174.42834857 -.00000112  00000+0 -36942-3 0  9995
2 25907  51.9964 349.8105 0001602 316.6197  43.4512 11.93182082498590
GLOBALSTAR M055         
1 25910U 99049D   24174.58022554 -.00000077  00000+0  14634-3 0  9992
2 25910  52.0031 308.8677 0007816 106.2581 253.9131 12.29403078124056
